GLOBALSTAR M068 [-]     
1 32266U 07048D   24062.81455674 -.00000094  00000+0  55318-4 0  9991
2 32266  51.9889 299.1091 0001034 128.8865 308.5099 12.62780587758008
GLOBALSTAR M079 [+]     
1 37188U 10054A   24062.40289528 -.00000086  00000+0  98109-4 0  9994
2 37188  52.0028 135.9736 0000498  99.0649 341.5306 12.62267131616879
GLOBALSTAR M074 [+]     
1 37189U 10054B   24062.51348692 -.00000086  00000+0  10100-3 0  9999
2 37189  52.0008 135.0335 0000668 119.3217 343.6203 12.62265853617497
GLOBALSTAR M076 [+]     
1 37190U 10054C   24062.54150816 -.00000089  00000+0  83799-4 0  9991
2 37190  52.0021 135.0777 0000955  85.7102  23.8612 12.62275133617574
GLOBALSTAR M077 [+]     
1 37191U 10054D   24062.28447642 -.00000109  00000+0 -30657-4 0  9998
2 37191  52.0064  92.5795 0000511 118.0439 322.9086 12.62270091617554
GLOBALSTAR M075 [+]     
1 37192U 10054E   24062.63258595 -.00000082  00000+0  11962-3 0  9991
2 37192  51.9937 177.3187 0000696 103.9231 359.7219 12.62271134616820
GLOBALSTAR M073 [+]     
1 37193U 10054F   24062.39456091 -.00000099  00000+0  25632-4 0  9994
2 37193  52.0052  91.4997 0000476 103.6822 359.5380 12.62262305618251
GLOBALSTAR M083 [+]     
1 37739U 11033A   24062.24931200 -.00000107  00000+0 -17187-4 0  9999
2 37739  51.9868  41.3173 0000135  98.8911   3.6499 12.62265969587258
GLOBALSTAR M088 [+]     
1 37740U 11033B   24062.85109183 -.00000079  00000+0  13699-3 0  9995
2 37740  51.9742 305.3769 0000563  62.0263  16.9764 12.62265446582878
GLOBALSTAR M091 [+]     
1 37741U 11033C   24062.86961152 -.00000084  00000+0  10814-3 0  9991
2 37741  51.9981 268.0312 0000597  69.3072  33.8714 12.62271915583667
GLOBALSTAR M085 [+]     
1 37742U 11033D   24062.75762172 -.00000082  00000+0  12245-3 0  9999
2 37742  51.9846 219.8269 0000625  92.4442 280.9261 12.62268234584161
GLOBALSTAR M081 [+]     
1 37743U 11033E   24062.64042113 -.00000089  00000+0  79764-4 0  9991
2 37743  51.9935 222.6792 0000698  76.1122   4.9331 12.62270252584297
GLOBALSTAR M089 [+]     
1 37744U 11033F   24062.52172189 -.00000093  00000+0  58990-4 0  9999
2 37744  51.9922 177.3585 0001000  93.4453 346.9486 12.62254688585125
GLOBALSTAR M084 [+]     
1 38040U 11080A   24062.93199307 -.00000094  00000+0  52604-4 0  9994
2 38040  52.0017  43.1444 0000666  88.7628 357.3578 12.62271506563159
GLOBALSTAR M080 [+]     
1 38041U 11080B   24062.27625031 -.00000106  00000+0 -14525-4 0  9995
2 38041  52.0069  46.5828 0000759  75.9501  28.1634 12.62269486563195
GLOBALSTAR M082 [+]     
1 38042U 11080C   24062.92438206 -.00000092  00000+0  64910-4 0  9990
2 38042  52.0106   0.0078 0000182 194.7242 276.3497 12.62266229563985
GLOBALSTAR M092 [+]     
1 38043U 11080D   24062.25757694 -.00000113  00000+0 -52628-4 0  9990
2 38043  52.0075  92.3900 0000651 120.6173 318.0887 12.62276817562352
GLOBALSTAR M090 [+]     
1 38044U 11080E   24062.95104425 -.00000089  00000+0  81638-4 0  9990
2 38044  51.9916 354.3414 0000260  73.8434  39.4515 12.62266541564101
GLOBALSTAR M086 [+]     
1 38045U 11080F   24062.96973911 -.00000092  00000+0  66765-4 0  9994
2 38045  51.9928 354.8000 0001179  19.4065  58.2319 12.62267693564051
GLOBALSTAR M097 [+]     
1 39072U 13005A   24062.74148709 -.00000081  00000+0  12949-3 0  9991
2 39072  52.0029 269.5642 0000643  67.3168 292.7766 12.62261336511276
GLOBALSTAR M093 [+]     
1 39073U 13005B   24062.87330971 -.00000084  00000+0  11242-3 0  9998
2 39073  51.9791 263.2192 0000603  62.1124 297.9804 12.62261679511240
GLOBALSTAR M094 [+]     
1 39074U 13005C   24062.63581825 -.00000087  00000+0  93933-4 0  9990
2 39074  51.9949 177.8511 0000560  99.2689 260.8241 12.62263259512825
GLOBALSTAR M096 [+]     
1 39075U 13005D   24062.72821837 -.00000085  00000+0  10211-3 0  9996
2 39075  52.0052 225.7164 0000619  80.3951 279.6986 12.62273121511752
GLOBALSTAR M078 [+]     
1 39076U 13005E   24062.86058650 -.00000182  00000+0 -43839-3 0  9998
2 39076  51.9889 310.4695 0000675 176.9128 183.1742 12.62260677510390
GLOBALSTAR M095 [+]     
1 39077U 13005F   24062.88649582 -.00000080  00000+0  12989-3 0  9999
2 39077  51.9810 307.8185 0000086  85.4027 274.6850 12.62263950510255
GLOBALSTAR M087 [+]     
1 52888U 22064A   24062.62851150 -.00000095  00000+0  63543-4 0  9996
2 52888  51.9740 219.9442 0010302  94.3931 265.8147 13.37566445 83261
